OBJECT_NAME,OBJECT_ID,EPOCH,MEAN_MOTION,ECCENTRICITY,INCLINATION,RA_OF_ASC_NODE,ARG_OF_PERICENTER,MEAN_ANOMALY,EPHEMERIS_TYPE,CLASSIFICATION_TYPE,NORAD_CAT_ID,ELEMENT_SET_NO,REV_AT_EPOCH,BSTAR,MEAN_MOTION_DOT,MEAN_MOTION_DDOT
ENMAP,2022-033C,2026-07-10T13:40:54.950880,14.74938421,.00013595,97.9787,273.4877,77.6526,282.4835,0,U,52159,999,23010,.12733404E-4,.35E-6,0
ARCSAT-1,2022-033E,2026-07-10T13:35:01.564512,15.54203884,.00063507,97.2754,284.1948,110.1625,250.0313,0,U,52161,999,23933,.19190541E-3,.12411E-3,0
GLOBAL-18,2022-034B,2026-07-10T06:12:31.501152,15.47079635,.00043087,52.9800,146.3065,11.3992,348.7110,0,U,52196,999,24053,.30601834E-3,.15344E-3,0
GAOFEN-3 03,2022-035A,2026-07-10T14:38:28.417632,14.42217833,.00017253,98.4070,199.8504,91.2698,268.8689,0,U,52200,999,22422,.15446018E-4,.7E-7,0
DAQI-1,2022-039A,2026-07-10T14:54:28.135872,14.57690840,.00036357,98.1478,129.9887,160.0458,200.0883,0,U,52257,999,22535,.24053625E-4,.65E-6,0
BRO-6,2022-047AE,2026-07-10T14:47:17.105280,15.52307564,.00030637,97.3392,283.1481,336.7206,23.3907,0,U,52422,999,23478,.52939544E-3,.3219E-3,0
JILIN-1 GAOFEN 3D27,2022-048B,2026-07-10T14:42:24.486624,15.81860701,.00046569,97.5718,307.7862,255.4560,104.6192,0,U,52444,999,23317,.73267237E-3,.14973E-2,0
JILIN-1 GAOFEN 3D28,2022-048C,2026-07-10T14:53:16.433376,15.86485554,.00044311,97.5658,308.0638,250.1323,109.9470,0,U,52445,999,23323,.76199417E-3,.194726E-2,0
VIGORIDE-3,2022-057AE,2026-07-10T09:47:45.392928,15.27519382,.00092625,97.6626,332.0050,49.8641,310.3408,0,U,52760,999,22870,.14366798E-3,.3792E-4,0
ION SCV-006,2022-057AF,2026-07-10T08:14:09.920832,15.45846346,.00172431,97.6117,341.0882,34.6151,325.6216,0,U,52761,999,22969,.19645722E-3,.9489E-4,0
SHERPA-AC1,2022-057AH,2026-07-10T09:11:12.922080,15.36588737,.00076594,97.6708,341.5846,20.7048,339.4504,0,U,52763,999,22926,.15051069E-3,.5292E-4,0
OMNI-L2,2022-057AR,2026-07-10T02:06:38.728800,14.81430429,.00053004,97.4704,251.9068,240.8528,119.2155,0,U,52771,999,22378,.11471583E-3,.85E-5,0
STEP CUBE LAB-II,2022-065D,2026-07-10T14:09:08.086752,14.63339536,.00076442,98.2255,335.4236,319.0275,41.0352,0,U,52897,999,21492,.12498604E-3,.597E-5,0
RANDEV,2022-065E,2026-07-10T10:44:53.298240,14.63727800,.00070239,98.2241,335.6441,320.3684,39.7004,0,U,52898,999,21465,.12112103E-3,.583E-5,0
SNUGLITE-II,2022-065F,2026-07-09T15:33:16.229664,14.64388183,.00064999,98.2228,335.4423,320.9247,39.1485,0,U,52899,999,21428,.12368653E-3,.605E-5,0
MIMAN,2022-065G,2026-07-10T09:19:39.001440,14.61868741,.00066509,98.2291,333.7580,321.2647,38.8076,0,U,52900,999,21383,.73516673E-4,.32E-5,0
STARLINK-4362,2022-077A,2026-07-09T17:29:06.825408,15.05656275,.00013223,97.2835,8.4820,90.8209,269.3170,0,U,53043,999,21927,.1502468E-4,.161E-5,0
LARES-2,2022-080A,2026-07-06T17:36:42.503328,6.38965057,.00052813,70.1565,298.6253,331.1813,28.8535,0,U,53105,999,9291,0,-.14E-6,0
GREENCUBE (IO-117),2022-080E,2026-07-10T05:14:37.423680,6.42583278,.00090084,70.1422,290.2367,284.7282,75.2379,0,U,53109,999,9354,0,-.3E-7,0
STARLINK-4410,2022-084R,2026-07-10T14:00:04.000032,15.43671750,.00013357,97.6000,253.4535,93.5837,251.1781,0,U,53204,999,589,.29437085E-2,.134754E-2,0
COSMOS 2558,2022-089A,2026-07-09T20:29:02.909760,15.80528596,.0003666,97.2242,295.9254,238.3398,121.7513,0,U,53323,999,22140,.61174E-3,.11711E-2,0
TECMS,2022-090A,2026-07-10T15:19:48.414720,15.21214352,.00055447,97.3130,259.0838,96.4600,263.7267,0,U,53346,999,21837,.10145562E-3,.2197E-4,0
DONGPO 02,2022-098J,2026-07-10T03:30:08.389152,15.80032856,.00043669,97.5532,324.4210,225.2961,134.7951,0,U,53452,999,21841,.61411741E-3,.114946E-2,0
DONGPO 01,2022-098K,2026-07-10T02:37:02.828928,15.77179667,.00028575,97.5609,324.8377,216.7974,143.3096,0,U,53453,999,21836,.61652838E-3,.101386E-2,0
STARLINK-4400,2022-099D,2026-07-09T07:25:00.719040,15.05652292,.00016283,97.2840,308.1670,122.5425,237.5960,0,U,53468,999,21427,-.7660725E-5,-.167E-5,0
STARLINK-4621,2022-105AE,2026-07-09T09:04:42.626496,15.05652857,.00017002,97.2827,68.2472,86.0714,274.0708,0,U,53676,999,21154,.2309231E-4,.277E-5,0
SHERPA-LTC2,2022-107BG,2026-07-10T05:43:04.698912,14.69894127,.03927684,53.2365,122.7379,290.8074,65.1253,0,U,53754,999,20593,.15170061E-3,.2762E-4,0
CENTISPACE-1 S3,2022-108A,2026-07-10T14:24:17.317152,14.61280142,.00106306,53.5341,318.4432,54.0730,306.1230,0,U,53757,999,20495,.72829494E-4,.172E-5,0
CENTISPACE-1 S4,2022-108B,2026-07-10T13:45:51.651072,14.61968292,.00098711,53.5316,315.9603,43.3955,316.7796,0,U,53758,999,20498,.93103025E-4,.279E-5,0
BLUEWALKER-3,2022-111AL,2026-07-09T12:40:14.891232,15.38565703,.00046278,53.2297,289.0667,241.3909,118.6631,0,U,53807,999,21364,.11864694E-3,.4192E-4,0
YUNHAI-1 03,2022-115A,2026-07-10T13:59:17.382912,14.32734007,.00044563,98.5541,189.4336,353.9345,6.1784,0,U,53877,999,19886,.10082502E-3,.231E-5,0
CENTISPACE-1 S5,2022-126A,2026-07-10T14:04:31.967040,14.63051080,.00145537,54.9987,119.3206,115.7487,244.5011,0,U,54020,999,20046,.12043337E-3,.433E-5,0
CENTISPACE-1 S6,2022-126B,2026-07-10T14:11:34.468224,14.62312138,.00163569,54.9990,121.2759,116.7643,243.5027,0,U,54021,999,20042,.97980584E-4,.31E-5,0
OTB-3-GAZELLE,2022-127A,2026-07-10T08:43:14.625408,14.42682860,.00143102,98.3957,182.7160,116.2681,243.9981,0,U,54023,999,19770,.4004663E-4,.9E-6,0
ASO-S,2022-129A,2026-07-10T14:43:30.337248,14.52073377,.00148926,98.2753,196.3590,25.8398,334.3539,0,U,54029,999,19882,.41607157E-4,.124E-5,0
HJ-2E,2022-132A,2026-07-10T14:48:28.140768,15.22655357,.00180891,97.3802,195.5763,288.2252,71.7016,0,U,54035,999,20798,.23170825E-3,.5346E-4,0
COSMOS 2561,2022-137A,2026-07-09T20:35:10.326624,15.52279849,.0008237,96.9177,249.0165,305.1334,54.9147,0,U,54109,999,20986,.17123E-3,.10328E-3,0
GONETS-M 23,2022-139A,2026-07-10T14:33:55.001376,12.42891775,.00219476,82.5091,333.7392,168.2401,191.9196,0,U,54150,999,16855,.11167029E-3,.25E-6,0
GONETS-M 24,2022-139B,2026-07-10T13:55:07.838976,12.42892388,.00170039,82.5008,332.7998,177.9319,182.1834,0,U,54151,999,16855,.83535646E-4,.21E-6,0
GONETS-M 25,2022-139C,2026-07-10T13:35:34.985760,12.42890779,.00209391,82.5073,333.5071,176.9773,183.1437,0,U,54152,999,16855,.11123116E-3,.25E-6,0
SKIF-D,2022-139D,2026-07-10T05:46:42.558240,5.00429285,.00074219,89.9493,96.6615,189.4801,170.5705,0,U,54153,999,6526,0,0,0
MATS,2022-147A,2026-07-10T10:41:54.667968,15.05488341,.00141846,97.6824,192.9436,117.4397,242.8274,0,U,54227,999,20126,.83866313E-4,.1145E-4,0
EOS-6 (OCEANSAT-3),2022-158A,2026-07-10T14:30:07.585344,14.46982818,.00002424,98.3549,289.4886,106.2243,253.8976,0,U,54361,999,19122,.48499772E-4,.133E-5,0
DONGPO 09,2022-167D,2026-07-10T14:13:52.120704,15.36865325,.00030811,97.6912,3.6560,62.5678,297.5879,0,U,54685,999,19904,.2148404E-3,.7656E-4,0
DONGPO 08,2022-167E,2026-07-10T14:45:22.431744,15.34124536,.00093676,97.6876,0.7451,87.6974,272.5340,0,U,54686,999,19891,.22506863E-3,.7357E-4,0
2022-167F,2022-167F,2026-07-10T12:55:16.588416,16.10815797,.00060739,97.5997,22.6234,244.6601,115.4054,0,U,54687,999,20056,.66390728E-3,.649059E-2,.22966721E-3
DONGPO 10,2022-167H,2026-07-10T14:37:04.841184,15.34940112,.00053484,97.6957,2.7460,42.7040,317.4617,0,U,54689,999,19895,.22104181E-3,.7408E-4,0
JILIN-1 GAOFEN 03D48,2022-167P,2026-07-10T14:16:42.489408,15.35728629,.00068245,97.6892,2.1175,44.9633,315.2161,0,U,54695,999,19898,.21179157E-3,.7278E-4,0
STAR VIBE,2023-001A,2026-07-10T13:58:51.669408,15.43269021,.00059652,97.3163,256.1491,45.7644,314.4092,0,U,55009,999,19583,.22943502E-3,.10123E-3,0
BRO-8,2023-001C,2026-07-10T14:46:03.151200,15.50549229,.00053558,97.3196,257.1585,55.9195,304.2565,0,U,55011,999,19583,.41760244E-3,.23815E-3,0
CONNECTA T1.2,2023-001D,2026-07-09T14:44:08.485440,15.52554531,.00044362,97.3245,261.7273,29.3220,330.8281,0,U,55012,999,19602,.54725678E-3,.33588E-3,0
BIRKELAND,2023-001G,2026-07-10T14:22:38.618112,15.40486182,.00069235,97.3340,259.6333,36.3214,323.8501,0,U,55015,999,19595,.15655895E-3,.6266E-4,0
ION SCV-008,2023-001AU,2026-07-10T08:15:31.212864,15.28844427,.00132243,97.5712,288.0538,292.3719,67.6118,0,U,55051,999,19487,.15440114E-3,.4258E-4,0
ION SCV-007,2023-001BD,2026-07-10T03:43:17.534784,14.77573553,.00109197,97.8995,253.7133,260.4754,99.5223,0,U,55060,999,18964,.39813732E-4,.234E-5,0
HUYGENS,2023-001CN,2026-07-10T14:22:45.872256,15.40485533,.00089577,97.3243,258.8327,10.1099,350.0326,0,U,55093,999,19597,.15168092E-3,.6071E-4,0
SHARJAHSAT-1,2023-001CZ,2026-07-10T14:51:48.976704,15.49998448,.00052701,97.3161,260.7231,36.0403,324.1203,0,U,55104,999,19612,.26528085E-3,.14786E-3,0
HORUS 1,2023-025A,2026-07-10T14:27:46.954656,15.23508024,.00027518,97.3458,265.7045,120.3897,239.7612,0,U,55690,999,18761,.15280881E-3,.3578E-4,0
HORUS 2,2023-032A,2026-07-10T13:43:32.293056,15.23314556,.00008241,97.3530,266.5030,126.5388,233.5926,0,U,55844,999,18504,.1562544E-3,.3639E-4,0
GLOBAL-19,2023-041B,2026-07-09T22:51:50.896224,15.38589343,.00087792,42.0016,69.0757,183.2971,176.7812,0,U,55982,999,18543,.25562462E-3,.9716E-4,0
ION SCV-010,2023-054Q,2026-07-10T07:16:01.626240,15.26396749,.00144059,97.3755,80.5087,119.4005,240.8674,0,U,56192,999,17972,.13138169E-3,.3354E-4,0
TELEOS-2,2023-057C,2026-07-10T05:13:05.714400,14.96401576,.00008226,9.9889,36.4860,263.5663,96.4457,0,U,56310,999,17625,.25010335E-3,.3601E-4,0
SNIPE 4,2023-072B,2026-07-10T15:04:43.193280,15.43269058,.00043682,97.5239,38.3903,224.6138,135.4758,0,U,56744,999,17372,.36649852E-3,.16226E-3,0
SNIPE 2,2023-072C,2026-07-10T14:25:03.327744,15.48057106,.000287,97.5227,41.5731,256.4211,103.6720,0,U,56745,999,17386,.33243468E-3,.17328E-3,0
2023-072G,2023-072G,2026-07-10T14:36:09.081216,15.51939128,.00019549,97.4883,40.4125,224.9379,135.1715,0,U,56749,999,17409,.38968907E-3,.23329E-3,0
GEISAT PRECURSOR,2023-084C,2026-07-10T13:25:22.523808,15.34967819,.00041734,97.6242,333.2905,251.1593,108.9197,0,U,56934,999,17111,.14281802E-3,.4759E-4,0
